LEMUR-2-KREMPEL-BRO1    
1 63357U 25061G   26064.17094852  .00005795  00000+0  32436-3 0  9998
2 63357  97.5522  40.8094 0017220 245.9585 113.9844 15.13712401 51899
LEMUR-2-LANGER2SPACE    
1 63358U 25061H   26064.24275728  .00006373  00000+0  35970-3 0  9999
2 63358  97.5529  40.7369 0015095 255.5009 104.4548 15.13402161 51892
LEMUR-2-BALTO           
1 63395U 25052BH  26064.22218671  .00008714  00000+0  72615-3 0  9990
2 63395  97.6996 319.0998 0002848  11.3992 348.7295 14.98855988 53180
