[{"OBJECT_NAME":"LEMUR-2-KREMPEL-BRO1","OBJECT_ID":"2025-061G","EPOCH":"2026-03-05T04:06:09.952128","MEAN_MOTION":15.13712401,"ECCENTRICITY":0.00172209,"INCLINATION":97.5522,"RA_OF_ASC_NODE":40.8094,"ARG_OF_PERICENTER":245.9585,"MEAN_ANOMALY":113.9844,"EPHEMERIS_TYPE":0,"CLASSIFICATION_TYPE":"U","NORAD_CAT_ID":63357,"ELEMENT_SET_NO":999,"REV_AT_EPOCH":5189,"BSTAR":0.00032436477,"MEAN_MOTION_DOT":5.795e-5,"MEAN_MOTION_DDOT":0},{"OBJECT_NAME":"LEMUR-2-LANGER2SPACE","OBJECT_ID":"2025-061H","EPOCH":"2026-03-05T05:49:34.228992","MEAN_MOTION":15.13402161,"ECCENTRICITY":0.00150953,"INCLINATION":97.5529,"RA_OF_ASC_NODE":40.7369,"ARG_OF_PERICENTER":255.5009,"MEAN_ANOMALY":104.4548,"EPHEMERIS_TYPE":0,"CLASSIFICATION_TYPE":"U","NORAD_CAT_ID":63358,"ELEMENT_SET_NO":999,"REV_AT_EPOCH":5189,"BSTAR":0.00035969952,"MEAN_MOTION_DOT":6.373e-5,"MEAN_MOTION_DDOT":0},{"OBJECT_NAME":"LEMUR-2-BALTO","OBJECT_ID":"2025-052BH","EPOCH":"2026-03-05T05:19:56.931744","MEAN_MOTION":14.98855988,"ECCENTRICITY":0.00028482,"INCLINATION":97.6996,"RA_OF_ASC_NODE":319.0998,"ARG_OF_PERICENTER":11.3992,"MEAN_ANOMALY":348.7295,"EPHEMERIS_TYPE":0,"CLASSIFICATION_TYPE":"U","NORAD_CAT_ID":63395,"ELEMENT_SET_NO":999,"REV_AT_EPOCH":5318,"BSTAR":0.0007261459,"MEAN_MOTION_DOT":8.714e-5,"MEAN_MOTION_DDOT":0}]
